56925,STARLINK-5733,2023,95.84,-1.0,+,43.0,Active,0,LEO,USA,USA,Unknown,Unknown,Unknown,1 56925U 23083BB  25300.73522262  .00001511  00000+0  12693-3 0  9993,2 56925  43.0040  70.9456 0001310 264.0000  96.0693 15.02535063131826,15.02535063,0.000131,LEO
56926,STARLINK-5746,2023,95.84,-1.0,+,43.0,Active,0,LEO,USA,USA,Unknown,Unknown,Unknown,1 56926U 23083BC  25301.07093667  .00000295  00000+0  36888-4 0  9995,2 56926  43.0039  69.1667 0001308 272.7921  87.2771 15.02537714131873,15.02537714,0.0001308,LEO
56927,STARLINK-5808,2023,95.84,-1.0,+,43.01,Active,0,LEO,USA,USA,Unknown,Unknown,Unknown,1 56927U 23083BD  25301.47846476  .00002984  00000+0  23576-3 0  9990,2 56927  43.0060 337.6126 0001449 272.9347  87.1329 15.02558950132965,15.0255895,0.0001449,LEO
57049,STARLINK-5850,2023,95.84,-1.0,+,43.0,Active,0,LEO,USA,USA,Unknown,Unknown,Unknown,1 57049U 23088B   25301.52337556  .00000071  00000+0  20349-4 0  9992,2 57049  43.0026 106.0454 0001367 273.8725  86.1961 15.02530184130670,15.02530184,0.0001367,LEO
57050,STARLINK-5845,2023,95.84,-1.0,+,43.0,Active,0,LEO,USA,USA,Unknown,Unknown,Unknown,1 57050U 23088C   25301.50561426  .00000279  00000+0  35739-4 0  9996,2 57050  43.0031 105.9151 0001309 267.9772  92.0921 15.02534450130483,15.0253445,0.0001309,LEO
57051,STARLINK-5839,2023,95.84,-1.0,+,43.0,Active,0,LEO,USA,USA,Unknown,Unknown,Unknown,1 57051U 23088D   25301.50894430  .00001390  00000+0  11795-3 0  9991,2 57051  43.0032 105.9370 0001448 267.2862  92.7814 15.02535293130489,15.02535293,0.0001448,LEO
57052,STARLINK-5860,2023,95.84,-1.0,+,43.0,Active,0,LEO,USA,USA,Unknown,Unknown,Unknown,1 57052U 23088E   25301.51227193  .00000515  00000+0  53152-4 0  9991,2 57052  43.0033 105.9609 0001133 270.5046  89.5666 15.02538728130483,15.02538728,0.0001133,LEO
57053,STARLINK-5865,2023,95.84,-1.0,+,43.0,Active,0,LEO,USA,USA,Unknown,Unknown,Unknown,1 57053U 23088F   25301.49562387  .00000050  00000+0  18806-4 0  9997,2 57053  43.0019 105.8354 0001253 272.4581  87.6118 15.02533535130484,15.02533535,0.0001253,LEO
57054,STARLINK-5881,2023,95.84,-1.0,+,43.0,Active,0,LEO,USA,USA,Unknown,Unknown,Unknown,1 57054U 23088G   25301.48452494  .00001228  00000+0  10593-3 0  9996,2 57054  43.0031 105.7570 0001189 260.3868  99.6840 15.02537067130489,15.02537067,0.0001189,LEO
57055,STARLINK-6237,2023,95.84,-1.0,+,43.0,Active,0,LEO,USA,USA,Unknown,Unknown,Unknown,1 57055U 23088H   25300.83861640 -.00002401  00000+0 -16269-3 0  9994,2 57055  43.0024 109.5096 0001130 263.7093  96.3621 15.02546797130380,15.02546797,0.000113,LEO
57056,STARLINK-6353,2023,95.84,-1.0,+,43.0,Active,0,LEO,USA,USA,Unknown,Unknown,Unknown,1 57056U 23088J   25301.48563400 -.00000392  00000+0 -13936-4 0  9996,2 57056  43.0040 105.7632 0001122 265.3203  94.7511 15.02534583130486,15.02534583,0.0001122,LEO
57057,STARLINK-6223,2023,95.84,-1.0,+,43.0,Active,0,LEO,USA,USA,Unknown,Unknown,Unknown,1 57057U 23088K   25301.48230108 -.00000259  00000+0 -41276-5 0  9994,2 57057  43.0042 105.7171 0001292 271.1586  88.9108 15.02535230130481,15.0253523,0.0001292,LEO
57058,STARLINK-6217,2023,95.84,-1.0,+,43.0,Active,0,LEO,USA,USA,Unknown,Unknown,Unknown,1 57058U 23088L   25301.48896161  .00000997  00000+0  88878-4 0  9997,2 57058  43.0032 105.7881 0001200 270.9709  89.0996 15.02535255130486,15.02535255,0.00012,LEO
57059,STARLINK-6211,2023,95.84,-1.0,+,43.0,Active,0,LEO,USA,USA,Unknown,Unknown,Unknown,1 57059U 23088M   25301.51560064  .00000644  00000+0  62768-4 0  9991,2 57059  43.0030 105.9761 0001313 263.5151  96.5542 15.02536069130482,15.02536069,0.0001313,LEO
57060,STARLINK-6227,2023,95.84,-1.0,+,43.0,Active,0,LEO,USA,USA,Unknown,Unknown,Unknown,1 57060U 23088N   25301.51895641 -.00002430  00000+0 -16498-3 0  9990,2 57060  43.0025 106.0016 0001574 265.3166  94.7496 15.02510626130487,15.02510626,0.0001574,LEO
57061,STARLINK-5869,2023,95.84,-1.0,+,43.0,Active,0,LEO,USA,USA,Unknown,Unknown,Unknown,1 57061U 23088P   25301.53878954  .00000165  00000+0  27269-4 0  9991,2 57061  43.0024 105.2929 0001253 272.4867  87.5831 15.02537278129519,15.02537278,0.0001253,LEO
