[{"OBJECT_NAME":"STARLINK-5733","OBJECT_ID":"2023-083BB","EPOCH":"2025-10-27T17:38:43.234368","MEAN_MOTION":15.02535063,"ECCENTRICITY":0.00013103,"INCLINATION":43.004,"RA_OF_ASC_NODE":70.9456,"ARG_OF_PERICENTER":264,"MEAN_ANOMALY":96.0693,"EPHEMERIS_TYPE":0,"CLASSIFICATION_TYPE":"U","NORAD_CAT_ID":56925,"ELEMENT_SET_NO":999,"REV_AT_EPOCH":13182,"BSTAR":0.00012692856,"MEAN_MOTION_DOT":1.511e-5,"MEAN_MOTION_DDOT":0},{"OBJECT_NAME":"STARLINK-5746","OBJECT_ID":"2023-083BC","EPOCH":"2025-10-28T01:42:08.928288","MEAN_MOTION":15.02537714,"ECCENTRICITY":0.00013085,"INCLINATION":43.0039,"RA_OF_ASC_NODE":69.1667,"ARG_OF_PERICENTER":272.7921,"MEAN_ANOMALY":87.2771,"EPHEMERIS_TYPE":0,"CLASSIFICATION_TYPE":"U","NORAD_CAT_ID":56926,"ELEMENT_SET_NO":999,"REV_AT_EPOCH":13187,"BSTAR":3.6887767e-5,"MEAN_MOTION_DOT":2.95e-6,"MEAN_MOTION_DDOT":0},{"OBJECT_NAME":"STARLINK-5808","OBJECT_ID":"2023-083BD","EPOCH":"2025-10-28T11:28:59.355264","MEAN_MOTION":15.0255895,"ECCENTRICITY":0.00014494,"INCLINATION":43.006,"RA_OF_ASC_NODE":337.6126,"ARG_OF_PERICENTER":272.9347,"MEAN_ANOMALY":87.1329,"EPHEMERIS_TYPE":0,"CLASSIFICATION_TYPE":"U","NORAD_CAT_ID":56927,"ELEMENT_SET_NO":999,"REV_AT_EPOCH":13296,"BSTAR":0.00023576152,"MEAN_MOTION_DOT":2.984e-5,"MEAN_MOTION_DDOT":0},{"OBJECT_NAME":"STARLINK-5850","OBJECT_ID":"2023-088B","EPOCH":"2025-10-28T12:33:39.648384","MEAN_MOTION":15.02530184,"ECCENTRICITY":0.00013673,"INCLINATION":43.0026,"RA_OF_ASC_NODE":106.0454,"ARG_OF_PERICENTER":273.8725,"MEAN_ANOMALY":86.1961,"EPHEMERIS_TYPE":0,"CLASSIFICATION_TYPE":"U","NORAD_CAT_ID":57049,"ELEMENT_SET_NO":999,"REV_AT_EPOCH":13067,"BSTAR":2.0349064e-5,"MEAN_MOTION_DOT":7.1e-7,"MEAN_MOTION_DDOT":0},{"OBJECT_NAME":"STARLINK-5845","OBJECT_ID":"2023-088C","EPOCH":"2025-10-28T12:08:05.072064","MEAN_MOTION":15.0253445,"ECCENTRICITY":0.00013093,"INCLINATION":43.0031,"RA_OF_ASC_NODE":105.9151,"ARG_OF_PERICENTER":267.9772,"MEAN_ANOMALY":92.0921,"EPHEMERIS_TYPE":0,"CLASSIFICATION_TYPE":"U","NORAD_CAT_ID":57050,"ELEMENT_SET_NO":999,"REV_AT_EPOCH":13048,"BSTAR":3.5739022e-5,"MEAN_MOTION_DOT":2.79e-6,"MEAN_MOTION_DDOT":0},{"OBJECT_NAME":"STARLINK-5839","OBJECT_ID":"2023-088D","EPOCH":"2025-10-28T12:12:52.787520","MEAN_MOTION":15.02535293,"ECCENTRICITY":0.00014485,"INCLINATION":43.0032,"RA_OF_ASC_NODE":105.937,"ARG_OF_PERICENTER":267.2862,"MEAN_ANOMALY":92.7814,"EPHEMERIS_TYPE":0,"CLASSIFICATION_TYPE":"U","NORAD_CAT_ID":57051,"ELEMENT_SET_NO":999,"REV_AT_EPOCH":13048,"BSTAR":0.00011795066,"MEAN_MOTION_DOT":1.39e-5,"MEAN_MOTION_DDOT":0},{"OBJECT_NAME":"STARLINK-5860","OBJECT_ID":"2023-088E","EPOCH":"2025-10-28T12:17:40.294752","MEAN_MOTION":15.02538728,"ECCENTRICITY":0.00011333,"INCLINATION":43.0033,"RA_OF_ASC_NODE":105.9609,"ARG_OF_PERICENTER":270.5046,"MEAN_ANOMALY":89.5666,"EPHEMERIS_TYPE":0,"CLASSIFICATION_TYPE":"U","NORAD_CAT_ID":57052,"ELEMENT_SET_NO":999,"REV_AT_EPOCH":13048,"BSTAR":5.3151958e-5,"MEAN_MOTION_DOT":5.15e-6,"MEAN_MOTION_DDOT":0},{"OBJECT_NAME":"STARLINK-5865","OBJECT_ID":"2023-088F","EPOCH":"2025-10-28T11:53:41.902368","MEAN_MOTION":15.02533535,"ECCENTRICITY":0.00012537,"INCLINATION":43.0019,"RA_OF_ASC_NODE":105.8354,"ARG_OF_PERICENTER":272.4581,"MEAN_ANOMALY":87.6118,"EPHEMERIS_TYPE":0,"CLASSIFICATION_TYPE":"U","NORAD_CAT_ID":57053,"ELEMENT_SET_NO":999,"REV_AT_EPOCH":13048,"BSTAR":1.8806135e-5,"MEAN_MOTION_DOT":5.0e-7,"MEAN_MOTION_DDOT":0},{"OBJECT_NAME":"STARLINK-5881","OBJECT_ID":"2023-088G","EPOCH":"2025-10-28T11:37:42.954816","MEAN_MOTION":15.02537067,"ECCENTRICITY":0.00011891,"INCLINATION":43.0031,"RA_OF_ASC_NODE":105.757,"ARG_OF_PERICENTER":260.3868,"MEAN_ANOMALY":99.684,"EPHEMERIS_TYPE":0,"CLASSIFICATION_TYPE":"U","NORAD_CAT_ID":57054,"ELEMENT_SET_NO":999,"REV_AT_EPOCH":13048,"BSTAR":0.0001059297,"MEAN_MOTION_DOT":1.228e-5,"MEAN_MOTION_DDOT":0},{"OBJECT_NAME":"STARLINK-6237","OBJECT_ID":"2023-088H","EPOCH":"2025-10-27T20:07:36.456960","MEAN_MOTION":15.02546797,"ECCENTRICITY":0.00011309,"INCLINATION":43.0024,"RA_OF_ASC_NODE":109.5096,"ARG_OF_PERICENTER":263.7093,"MEAN_ANOMALY":96.3621,"EPHEMERIS_TYPE":0,"CLASSIFICATION_TYPE":"U","NORAD_CAT_ID":57055,"ELEMENT_SET_NO":999,"REV_AT_EPOCH":13038,"BSTAR":-0.00016269026,"MEAN_MOTION_DOT":-2.401e-5,"MEAN_MOTION_DDOT":0},{"OBJECT_NAME":"STARLINK-6353","OBJECT_ID":"2023-088J","EPOCH":"2025-10-28T11:39:18.777600","MEAN_MOTION":15.02534583,"ECCENTRICITY":0.00011228,"INCLINATION":43.004,"RA_OF_ASC_NODE":105.7632,"ARG_OF_PERICENTER":265.3203,"MEAN_ANOMALY":94.7511,"EPHEMERIS_TYPE":0,"CLASSIFICATION_TYPE":"U","NORAD_CAT_ID":57056,"ELEMENT_SET_NO":999,"REV_AT_EPOCH":13048,"BSTAR":-1.3935682e-5,"MEAN_MOTION_DOT":-3.92e-6,"MEAN_MOTION_DDOT":0},{"OBJECT_NAME":"STARLINK-6223","OBJECT_ID":"2023-088K","EPOCH":"2025-10-28T11:34:30.813312","MEAN_MOTION":15.0253523,"ECCENTRICITY":0.00012921,"INCLINATION":43.0042,"RA_OF_ASC_NODE":105.7171,"ARG_OF_PERICENTER":271.1586,"MEAN_ANOMALY":88.9108,"EPHEMERIS_TYPE":0,"CLASSIFICATION_TYPE":"U","NORAD_CAT_ID":57057,"ELEMENT_SET_NO":999,"REV_AT_EPOCH":13048,"BSTAR":-4.127626e-6,"MEAN_MOTION_DOT":-2.59e-6,"MEAN_MOTION_DDOT":0},{"OBJECT_NAME":"STARLINK-6217","OBJECT_ID":"2023-088L","EPOCH":"2025-10-28T11:44:06.283104","MEAN_MOTION":15.02535255,"ECCENTRICITY":0.00012004,"INCLINATION":43.0032,"RA_OF_ASC_NODE":105.7881,"ARG_OF_PERICENTER":270.9709,"MEAN_ANOMALY":89.0996,"EPHEMERIS_TYPE":0,"CLASSIFICATION_TYPE":"U","NORAD_CAT_ID":57058,"ELEMENT_SET_NO":999,"REV_AT_EPOCH":13048,"BSTAR":8.8877729e-5,"MEAN_MOTION_DOT":9.97e-6,"MEAN_MOTION_DDOT":0},{"OBJECT_NAME":"STARLINK-6211","OBJECT_ID":"2023-088M","EPOCH":"2025-10-28T12:22:27.895296","MEAN_MOTION":15.02536069,"ECCENTRICITY":0.00013134,"INCLINATION":43.003,"RA_OF_ASC_NODE":105.9761,"ARG_OF_PERICENTER":263.5151,"MEAN_ANOMALY":96.5542,"EPHEMERIS_TYPE":0,"CLASSIFICATION_TYPE":"U","NORAD_CAT_ID":57059,"ELEMENT_SET_NO":999,"REV_AT_EPOCH":13048,"BSTAR":6.2768203e-5,"MEAN_MOTION_DOT":6.44e-6,"MEAN_MOTION_DDOT":0},{"OBJECT_NAME":"STARLINK-6227","OBJECT_ID":"2023-088N","EPOCH":"2025-10-28T12:27:17.833824","MEAN_MOTION":15.02510626,"ECCENTRICITY":0.00015742,"INCLINATION":43.0025,"RA_OF_ASC_NODE":106.0016,"ARG_OF_PERICENTER":265.3166,"MEAN_ANOMALY":94.7496,"EPHEMERIS_TYPE":0,"CLASSIFICATION_TYPE":"U","NORAD_CAT_ID":57060,"ELEMENT_SET_NO":999,"REV_AT_EPOCH":13048,"BSTAR":-0.0001649769,"MEAN_MOTION_DOT":-2.43e-5,"MEAN_MOTION_DDOT":0},{"OBJECT_NAME":"STARLINK-5869","OBJECT_ID":"2023-088P","EPOCH":"2025-10-28T12:55:51.416256","MEAN_MOTION":15.02537278,"ECCENTRICITY":0.00012539,"INCLINATION":43.0024,"RA_OF_ASC_NODE":105.2929,"ARG_OF_PERICENTER":272.4867,"MEAN_ANOMALY":87.5831,"EPHEMERIS_TYPE":0,"CLASSIFICATION_TYPE":"U","NORAD_CAT_ID":57061,"ELEMENT_SET_NO":999,"REV_AT_EPOCH":12951,"BSTAR":2.7269357e-5,"MEAN_MOTION_DOT":1.65e-6,"MEAN_MOTION_DDOT":0}]
